[{"OBJECT_NAME":"CUBESX-HSE 3 (RS42S)","OBJECT_ID":"2023-091N","EPOCH":"2026-03-09T22:57:25.321248","MEAN_MOTION":15.286147,"ECCENTRICITY":0.00127191,"INCLINATION":97.5203,"RA_OF_ASC_NODE":133.4295,"ARG_OF_PERICENTER":86.5376,"MEAN_ANOMALY":273.7318,"EPHEMERIS_TYPE":0,"CLASSIFICATION_TYPE":"U","NORAD_CAT_ID":57178,"ELEMENT_SET_NO":999,"REV_AT_EPOCH":14925,"BSTAR":0.00059055694,"MEAN_MOTION_DOT":0.00016417,"MEAN_MOTION_DDOT":0},{"OBJECT_NAME":"STARLINK-35846","OBJECT_ID":"2025-254V","EPOCH":"2026-03-09T17:01:50.596896","MEAN_MOTION":15.30210278,"ECCENTRICITY":0.00010302,"INCLINATION":53.1604,"RA_OF_ASC_NODE":232.0046,"ARG_OF_PERICENTER":136.8276,"MEAN_ANOMALY":223.2806,"EPHEMERIS_TYPE":0,"CLASSIFICATION_TYPE":"U","NORAD_CAT_ID":66367,"ELEMENT_SET_NO":999,"REV_AT_EPOCH":1898,"BSTAR":0.0014114954,"MEAN_MOTION_DOT":0.00041693,"MEAN_MOTION_DDOT":0}]
